ONEWEB-0144             
1 47290U 20100AJ  25030.12519058 -.00000151  00000+0 -45627-3 0  9991
2 47290  87.8845  90.8066 0002193  97.3414 262.7963 13.12445901198582
ONEWEB-0145             
1 47291U 20100AK  25029.86728911 -.00000024  00000+0 -10153-3 0  9996
2 47291  87.8846  90.8833 0001998 101.2041 258.9312 13.12439985198747
ONEWEB-0146             
1 47292U 20100AL  25030.16899728  .00000181  00000+0  46821-3 0  9990
2 47292  87.8850  90.8084 0001609 109.9954 250.1348 13.12442579198698
ONEWEB-0147             
1 47293U 20100AM  25029.90622442  .00000206  00000+0  53625-3 0  9996
2 47293  87.8842  90.8462 0002165 106.4061 253.7306 13.12442984198557
ONEWEB-0115             
1 48042U 21025A   25029.79385308 -.00000292  00000+0 -83417-3 0  9999
2 48042  87.8875  60.3135 0001811  95.3696 264.7640 13.13470652187513
ONEWEB-0152             
1 48043U 21025B   25029.80655618 -.00000220  00000+0 -63694-3 0  9992
2 48043  87.8877  60.3174 0001833  98.0367 262.0970 13.13469841187478
ONEWEB-0153             
1 48044U 21025C   25029.78432774 -.00000092  00000+0 -28678-3 0  9996
2 48044  87.8885  60.3159 0001903  93.6117 266.5230 13.13469758187467
ONEWEB-0154             
1 48045U 21025D   25029.78116679  .00000080  00000+0  18321-3 0  9999
2 48045  87.8881  60.3207 0001851  97.1615 262.9724 13.13469898187421
